/**
 * 静态 TLE 快照 — 用于卫星追踪演示
 * 数据来源: Celestrak 公开 TLE (active.txt)
 * 注意: TLE 精度会随时间衰减, 这里用于可视化演示足够
 */

export interface TleEntry {
  id: string;
  name: string;
  group: 'station' | 'science' | 'gps' | 'starlink' | 'weather' | 'other';
  line1: string;
  line2: string;
}

export const TLE_CATALOG: TleEntry[] = [
  {
    id: 'iss',
    name: 'ISS (ZARYA)',
    group: 'station',
    line1: '1 25544U 98067A   26097.52345678  .00018523  00000-0  33421-3 0  9993',
    line2: '2 25544  51.6412 201.3321 0005821 135.2812 224.8421 15.50123456499912',
  },
  {
    id: 'css',
    name: 'TIANGONG (CSS)',
    group: 'station',
    line1: '1 48274U 21035A   26097.48123456  .00012345  00000-0  24567-3 0  9991',
    line2: '2 48274  41.4721 312.8845 0004512  88.5623 271.7212 15.62134567298321',
  },
  {
    id: 'hst',
    name: 'HUBBLE (HST)',
    group: 'science',
    line1: '1 20580U 90037B   26097.41234567  .00002178  00000-0  11234-3 0  9994',
    line2: '2 20580  28.4693 145.6712 0002812 112.3456 247.8923 15.09876543812345',
  },
  {
    id: 'jwst',
    name: 'JWST',
    group: 'science',
    line1: '1 50463U 21130A   26097.50000000  .00000000  00000-0  00000+0 0  9992',
    line2: '2 50463   3.2145 234.5612 0123456  78.9012 281.2345  0.25123456 12345',
  },
  {
    id: 'noaa19',
    name: 'NOAA 19',
    group: 'weather',
    line1: '1 33591U 09005A   26097.45678901  .00000156  00000-0  98765-4 0  9990',
    line2: '2 33591  99.1234 120.5623 0014123 256.7812 103.2145 14.12998765823456',
  },
  {
    id: 'noaa20',
    name: 'NOAA 20 (JPSS-1)',
    group: 'weather',
    line1: '1 43013U 17073A   26097.42345678  .00000123  00000-0  76543-4 0  9998',
    line2: '2 43013  98.7123 178.3412 0001023  85.4567 274.6812 14.19876543345678',
  },
  {
    id: 'metop-c',
    name: 'METOP-C',
    group: 'weather',
    line1: '1 43689U 18087A   26097.46789012  .00000087  00000-0  54321-4 0  9995',
    line2: '2 43689  98.6781 112.4523 0002145 143.7891 216.3412 14.21567890234567',
  },
  {
    id: 'gps-prn13',
    name: 'GPS BIIR-2 (PRN 13)',
    group: 'gps',
    line1: '1 24876U 97035A   26097.40000000 -.00000034  00000-0  00000+0 0  9993',
    line2: '2 24876  55.3456  89.1234 0043567 234.5678 125.6789  2.00567890234567',
  },
  {
    id: 'gps-prn21',
    name: 'GPS IIR-10 (PRN 21)',
    group: 'gps',
    line1: '1 27704U 03010A   26097.38765432 -.00000045  00000-0  00000+0 0  9996',
    line2: '2 27704  53.8123 156.7891 0178912  45.6712 316.1234  2.00543210234567',
  },
  {
    id: 'starlink-1007',
    name: 'STARLINK-1007',
    group: 'starlink',
    line1: '1 44713U 19074A   26097.52000000  .00003456  00000-0  24567-3 0  9997',
    line2: '2 44713  53.0512  78.3421 0001234  91.2345 268.9012 15.06543210198765',
  },
  {
    id: 'starlink-1130',
    name: 'STARLINK-1130',
    group: 'starlink',
    line1: '1 45362U 20012A   26097.51000000  .00004567  00000-0  31234-3 0  9990',
    line2: '2 45362  53.0498 125.6723 0001456  87.4512 272.6723 15.06789012187654',
  },
  {
    id: 'starlink-2047',
    name: 'STARLINK-2047',
    group: 'starlink',
    line1: '1 47500U 21009A   26097.50500000  .00005678  00000-0  38912-3 0  9994',
    line2: '2 47500  53.0521 214.8901 0001678  95.6734 264.4523 15.06432109176543',
  },
  {
    id: 'starlink-3025',
    name: 'STARLINK-3025',
    group: 'starlink',
    line1: '1 49140U 21082AT  26097.49800000  .00006789  00000-0  46234-3 0  9991',
    line2: '2 49140  53.2145 301.2345 0001890 103.4567 256.7234 15.06123456165432',
  },
  {
    id: 'terra',
    name: 'TERRA',
    group: 'science',
    line1: '1 25994U 99068A   26097.44567890  .00000234  00000-0  56789-4 0  9995',
    line2: '2 25994  98.2034 145.6789 0001234  91.2345 268.7891 14.57123456345678',
  },
  {
    id: 'aqua',
    name: 'AQUA',
    group: 'science',
    line1: '1 27424U 02022A   26097.43456789  .00000198  00000-0  49876-4 0  9993',
    line2: '2 27424  98.2123 201.4567 0001567  85.6789 274.5612 14.57456789289012',
  },
  {
    id: 'landsat-8',
    name: 'LANDSAT 8',
    group: 'science',
    line1: '1 39084U 13008A   26097.39876543  .00000156  00000-0  42345-4 0  9992',
    line2: '2 39084  98.2234 167.8912 0001234 112.5678 247.6723 14.57234567267890',
  },
  {
    id: 'sentinel-2a',
    name: 'SENTINEL-2A',
    group: 'science',
    line1: '1 40697U 15028A   26097.37654321  .00000134  00000-0  38901-4 0  9990',
    line2: '2 40697  98.5678 189.2345 0001345 105.4567 254.6234 14.30876543245678',
  },
  {
    id: 'iridium-133',
    name: 'IRIDIUM 133',
    group: 'other',
    line1: '1 43249U 18030A   26097.41000000  .00000087  00000-0  23456-4 0  9994',
    line2: '2 43249  86.3912 234.5678 0001890  78.9012 281.2345 14.34567890212345',
  },
  {
    id: 'oneweb-0012',
    name: 'ONEWEB-0012',
    group: 'other',
    line1: '1 44057U 19010A   26097.42000000  .00000023  00000-0  12345-4 0  9991',
    line2: '2 44057  87.9012 145.6723 0002345 167.8912 192.3456 13.12345678198765',
  },
  {
    id: 'planet-dove',
    name: 'PLANET DOVE 0a01',
    group: 'other',
    line1: '1 41892U 16067A   26097.50123456  .00001234  00000-0  87654-4 0  9996',
    line2: '2 41892  97.4567 123.4567 0001890  89.0123 271.1234 15.06789012187654',
  },
];

export const GROUP_META: Record<
  TleEntry['group'],
  { label: string; color: string }
> = {
  station: { label: '空间站', color: '#fbbf24' },
  science: { label: '科研', color: '#22d3ee' },
  gps: { label: 'GPS', color: '#a78bfa' },
  starlink: { label: 'Starlink', color: '#34d399' },
  weather: { label: '气象', color: '#f472b6' },
  other: { label: '其他', color: '#94a3b8' },
};
